STARLINK-1297           
1 45395U 20019AM  25241.11830508 -.00000381  00000+0 -66809-5 0  9995
2 45395  53.0558 291.1098 0001132  95.8506 264.2612 15.06400817300169
STARLINK-1307           
1 45397U 20019AP  25241.17727975  .00001843  00000+0  14256-3 0  9995
2 45397  53.0552 290.8412 0001011  77.6638 282.4464 15.06405519300814
STARLINK-1312           
1 45398U 20019AQ  25241.28830780  .00162413  00000+0  17784-2 0  9996
2 45398  53.0538 271.7915 0012143 344.1944  15.8688 15.62176865301026
STARLINK-1255           
1 45399U 20019AR  25241.27772681 -.00000263  00000+0  12289-5 0  9994
2 45399  53.0551 280.3931 0001030  80.9645 279.1460 15.06394586300956
STARLINK-1259           
1 45403U 20019AV  25241.26429599  .00200319  00000+0  13943-2 0  9994
2 45403  53.0519 255.9147 0012029 355.2608   4.8294 15.73170856301292
STARLINK-1260           
1 45404U 20019AW  25240.44838547  .00000044  00000+0  21854-4 0  9996
2 45404  53.0543 284.1180 0001118  85.6294 274.4822 15.06396689300733
STARLINK-1263           
1 45405U 20019AX  25241.29615480  .00000311  00000+0  39780-4 0  9994
2 45405  53.0545 280.3093 0000934  86.1533 273.9563 15.06397154300862
STARLINK-1265           
1 45406U 20019AY  25241.10447804  .00000060  00000+0  22942-4 0  9991
2 45406  53.0555 281.1686 0001098  84.2336 275.8779 15.06402709300833
STARLINK-1278           
1 45408U 20019BA  25241.19753174  .00000017  00000+0  20059-4 0  9991
2 45408  53.0565 310.7503 0001294  88.9573 271.1565 15.06414715300433
STARLINK-1296           
1 45412U 20019BE  25241.10816554 -.00001942  00000+0 -11151-3 0  9991
2 45412  53.0555 281.1521 0001266  91.6448 268.4686 15.06400691300834
STARLINK-1298           
1 45413U 20019BF  25241.23817599  .00095477  00000+0  25239-2 0  9991
2 45413  53.0521 273.9045 0005682 354.4879   5.6060 15.37638913301047
STARLINK-1309           
1 45414U 20019BG  25241.25559840 -.00000272  00000+0  62050-6 0  9992
2 45414  53.0567 280.4934 0001330  78.0692 282.0447 15.06407856300849
STARLINK-1316           
1 45415U 20019BH  25241.28140773 -.00000708  00000+0 -28620-4 0  9995
2 45415  53.0578 280.3768 0001174  87.0893 273.0231 15.06402233300884
STARLINK-1318           
1 45416U 20019BJ  25241.25002315  .00263916  00000+0  42569-2 0  9998
2 45416  53.0540 270.7530 0001041  70.3082 257.3348 15.51465462  5869
STARLINK-1286           
1 45417U 20019BK  25240.52301632 -.00001487  00000+0 -80987-4 0  9995
2 45417  53.0539 313.7834 0001068  95.8227 264.2883 15.06396300300600
STARLINK-1308           
1 45419U 20019BM  25241.18280116 -.00001208  00000+0 -62237-4 0  9992
2 45419  53.0546 310.8197 0001113  85.9772 274.1344 15.06403321300453
