[{"OBJECT_NAME":"STARLINK-1297","OBJECT_ID":"2020-019AM","EPOCH":"2025-08-29T02:50:21.558912","MEAN_MOTION":15.06400817,"ECCENTRICITY":0.00011325,"INCLINATION":53.0558,"RA_OF_ASC_NODE":291.1098,"ARG_OF_PERICENTER":95.8506,"MEAN_ANOMALY":264.2612,"EPHEMERIS_TYPE":0,"CLASSIFICATION_TYPE":"U","NORAD_CAT_ID":45395,"ELEMENT_SET_NO":999,"REV_AT_EPOCH":30016,"BSTAR":-6.680903e-6,"MEAN_MOTION_DOT":-3.81e-6,"MEAN_MOTION_DDOT":0},{"OBJECT_NAME":"STARLINK-1307","OBJECT_ID":"2020-019AP","EPOCH":"2025-08-29T04:15:16.970400","MEAN_MOTION":15.06405519,"ECCENTRICITY":0.00010117,"INCLINATION":53.0552,"RA_OF_ASC_NODE":290.8412,"ARG_OF_PERICENTER":77.6638,"MEAN_ANOMALY":282.4464,"EPHEMERIS_TYPE":0,"CLASSIFICATION_TYPE":"U","NORAD_CAT_ID":45397,"ELEMENT_SET_NO":999,"REV_AT_EPOCH":30081,"BSTAR":0.00014255564,"MEAN_MOTION_DOT":1.843e-5,"MEAN_MOTION_DDOT":0},{"OBJECT_NAME":"STARLINK-1312","OBJECT_ID":"2020-019AQ","EPOCH":"2025-08-29T06:55:09.793920","MEAN_MOTION":15.62176865,"ECCENTRICITY":0.00121434,"INCLINATION":53.0538,"RA_OF_ASC_NODE":271.7915,"ARG_OF_PERICENTER":344.1944,"MEAN_ANOMALY":15.8688,"EPHEMERIS_TYPE":0,"CLASSIFICATION_TYPE":"U","NORAD_CAT_ID":45398,"ELEMENT_SET_NO":999,"REV_AT_EPOCH":30102,"BSTAR":0.0017783694,"MEAN_MOTION_DOT":0.00162413,"MEAN_MOTION_DDOT":0},{"OBJECT_NAME":"STARLINK-1255","OBJECT_ID":"2020-019AR","EPOCH":"2025-08-29T06:39:55.596384","MEAN_MOTION":15.06394586,"ECCENTRICITY":0.00010301,"INCLINATION":53.0551,"RA_OF_ASC_NODE":280.3931,"ARG_OF_PERICENTER":80.9645,"MEAN_ANOMALY":279.146,"EPHEMERIS_TYPE":0,"CLASSIFICATION_TYPE":"U","NORAD_CAT_ID":45399,"ELEMENT_SET_NO":999,"REV_AT_EPOCH":30095,"BSTAR":1.22891e-6,"MEAN_MOTION_DOT":-2.63e-6,"MEAN_MOTION_DDOT":0},{"OBJECT_NAME":"STARLINK-1259","OBJECT_ID":"2020-019AV","EPOCH":"2025-08-29T06:20:35.173536","MEAN_MOTION":15.73170856,"ECCENTRICITY":0.00120291,"INCLINATION":53.0519,"RA_OF_ASC_NODE":255.9147,"ARG_OF_PERICENTER":355.2608,"MEAN_ANOMALY":4.8294,"EPHEMERIS_TYPE":0,"CLASSIFICATION_TYPE":"U","NORAD_CAT_ID":45403,"ELEMENT_SET_NO":999,"REV_AT_EPOCH":30129,"BSTAR":0.0013942884,"MEAN_MOTION_DOT":0.00200319,"MEAN_MOTION_DDOT":0},{"OBJECT_NAME":"STARLINK-1260","OBJECT_ID":"2020-019AW","EPOCH":"2025-08-28T10:45:40.504608","MEAN_MOTION":15.06396689,"ECCENTRICITY":0.00011186,"INCLINATION":53.0543,"RA_OF_ASC_NODE":284.118,"ARG_OF_PERICENTER":85.6294,"MEAN_ANOMALY":274.4822,"EPHEMERIS_TYPE":0,"CLASSIFICATION_TYPE":"U","NORAD_CAT_ID":45404,"ELEMENT_SET_NO":999,"REV_AT_EPOCH":30073,"BSTAR":2.1853733e-5,"MEAN_MOTION_DOT":4.4e-7,"MEAN_MOTION_DDOT":0},{"OBJECT_NAME":"STARLINK-1263","OBJECT_ID":"2020-019AX","EPOCH":"2025-08-29T07:06:27.774720","MEAN_MOTION":15.06397154,"ECCENTRICITY":9.343e-5,"INCLINATION":53.0545,"RA_OF_ASC_NODE":280.3093,"ARG_OF_PERICENTER":86.1533,"MEAN_ANOMALY":273.9563,"EPHEMERIS_TYPE":0,"CLASSIFICATION_TYPE":"U","NORAD_CAT_ID":45405,"ELEMENT_SET_NO":999,"REV_AT_EPOCH":30086,"BSTAR":3.977993e-5,"MEAN_MOTION_DOT":3.11e-6,"MEAN_MOTION_DDOT":0},{"OBJECT_NAME":"STARLINK-1265","OBJECT_ID":"2020-019AY","EPOCH":"2025-08-29T02:30:26.902656","MEAN_MOTION":15.06402709,"ECCENTRICITY":0.00010982,"INCLINATION":53.0555,"RA_OF_ASC_NODE":281.1686,"ARG_OF_PERICENTER":84.2336,"MEAN_ANOMALY":275.8779,"EPHEMERIS_TYPE":0,"CLASSIFICATION_TYPE":"U","NORAD_CAT_ID":45406,"ELEMENT_SET_NO":999,"REV_AT_EPOCH":30083,"BSTAR":2.2941701e-5,"MEAN_MOTION_DOT":6.0e-7,"MEAN_MOTION_DDOT":0},{"OBJECT_NAME":"STARLINK-1278","OBJECT_ID":"2020-019BA","EPOCH":"2025-08-29T04:44:26.742336","MEAN_MOTION":15.06414715,"ECCENTRICITY":0.00012941,"INCLINATION":53.0565,"RA_OF_ASC_NODE":310.7503,"ARG_OF_PERICENTER":88.9573,"MEAN_ANOMALY":271.1565,"EPHEMERIS_TYPE":0,"CLASSIFICATION_TYPE":"U","NORAD_CAT_ID":45408,"ELEMENT_SET_NO":999,"REV_AT_EPOCH":30043,"BSTAR":2.0059275e-5,"MEAN_MOTION_DOT":1.7e-7,"MEAN_MOTION_DDOT":0},{"OBJECT_NAME":"STARLINK-1296","OBJECT_ID":"2020-019BE","EPOCH":"2025-08-29T02:35:45.502656","MEAN_MOTION":15.06400691,"ECCENTRICITY":0.0001266,"INCLINATION":53.0555,"RA_OF_ASC_NODE":281.1521,"ARG_OF_PERICENTER":91.6448,"MEAN_ANOMALY":268.4686,"EPHEMERIS_TYPE":0,"CLASSIFICATION_TYPE":"U","NORAD_CAT_ID":45412,"ELEMENT_SET_NO":999,"REV_AT_EPOCH":30083,"BSTAR":-0.00011150575,"MEAN_MOTION_DOT":-1.942e-5,"MEAN_MOTION_DDOT":0},{"OBJECT_NAME":"STARLINK-1298","OBJECT_ID":"2020-019BF","EPOCH":"2025-08-29T05:42:58.405536","MEAN_MOTION":15.37638913,"ECCENTRICITY":0.00056823,"INCLINATION":53.0521,"RA_OF_ASC_NODE":273.9045,"ARG_OF_PERICENTER":354.4879,"MEAN_ANOMALY":5.606,"EPHEMERIS_TYPE":0,"CLASSIFICATION_TYPE":"U","NORAD_CAT_ID":45413,"ELEMENT_SET_NO":999,"REV_AT_EPOCH":30104,"BSTAR":0.0025238643,"MEAN_MOTION_DOT":0.00095477,"MEAN_MOTION_DDOT":0},{"OBJECT_NAME":"STARLINK-1309","OBJECT_ID":"2020-019BG","EPOCH":"2025-08-29T06:08:03.701760","MEAN_MOTION":15.06407856,"ECCENTRICITY":0.00013302,"INCLINATION":53.0567,"RA_OF_ASC_NODE":280.4934,"ARG_OF_PERICENTER":78.0692,"MEAN_ANOMALY":282.0447,"EPHEMERIS_TYPE":0,"CLASSIFICATION_TYPE":"U","NORAD_CAT_ID":45414,"ELEMENT_SET_NO":999,"REV_AT_EPOCH":30084,"BSTAR":6.20503e-7,"MEAN_MOTION_DOT":-2.72e-6,"MEAN_MOTION_DDOT":0},{"OBJECT_NAME":"STARLINK-1316","OBJECT_ID":"2020-019BH","EPOCH":"2025-08-29T06:45:13.627872","MEAN_MOTION":15.06402233,"ECCENTRICITY":0.00011747,"INCLINATION":53.0578,"RA_OF_ASC_NODE":280.3768,"ARG_OF_PERICENTER":87.0893,"MEAN_ANOMALY":273.0231,"EPHEMERIS_TYPE":0,"CLASSIFICATION_TYPE":"U","NORAD_CAT_ID":45415,"ELEMENT_SET_NO":999,"REV_AT_EPOCH":30088,"BSTAR":-2.8620025e-5,"MEAN_MOTION_DOT":-7.08e-6,"MEAN_MOTION_DDOT":0},{"OBJECT_NAME":"STARLINK-1318","OBJECT_ID":"2020-019BJ","EPOCH":"2025-08-29T06:00:02.000160","MEAN_MOTION":15.51465462,"ECCENTRICITY":0.00010417,"INCLINATION":53.054,"RA_OF_ASC_NODE":270.753,"ARG_OF_PERICENTER":70.3082,"MEAN_ANOMALY":257.3348,"EPHEMERIS_TYPE":0,"CLASSIFICATION_TYPE":"U","NORAD_CAT_ID":45416,"ELEMENT_SET_NO":999,"REV_AT_EPOCH":586,"BSTAR":0.0042568804,"MEAN_MOTION_DOT":0.00263916,"MEAN_MOTION_DDOT":0},{"OBJECT_NAME":"STARLINK-1286","OBJECT_ID":"2020-019BK","EPOCH":"2025-08-28T12:33:08.610048","MEAN_MOTION":15.063963,"ECCENTRICITY":0.00010682,"INCLINATION":53.0539,"RA_OF_ASC_NODE":313.7834,"ARG_OF_PERICENTER":95.8227,"MEAN_ANOMALY":264.2883,"EPHEMERIS_TYPE":0,"CLASSIFICATION_TYPE":"U","NORAD_CAT_ID":45417,"ELEMENT_SET_NO":999,"REV_AT_EPOCH":30060,"BSTAR":-8.0987138e-5,"MEAN_MOTION_DOT":-1.487e-5,"MEAN_MOTION_DDOT":0},{"OBJECT_NAME":"STARLINK-1308","OBJECT_ID":"2020-019BM","EPOCH":"2025-08-29T04:23:14.020224","MEAN_MOTION":15.06403321,"ECCENTRICITY":0.00011139,"INCLINATION":53.0546,"RA_OF_ASC_NODE":310.8197,"ARG_OF_PERICENTER":85.9772,"MEAN_ANOMALY":274.1344,"EPHEMERIS_TYPE":0,"CLASSIFICATION_TYPE":"U","NORAD_CAT_ID":45419,"ELEMENT_SET_NO":999,"REV_AT_EPOCH":30045,"BSTAR":-6.2237167e-5,"MEAN_MOTION_DOT":-1.208e-5,"MEAN_MOTION_DDOT":0}]
